{"fetched_at":"2026-07-06T08:46:41.354Z","source":"https://celestrak.org/NORAD/elements/gp.php?GROUP=planet&FORMAT=JSON","constellation":"superdove","records":[{"OBJECT_NAME":"FLOCK 4BE-17","OBJECT_ID":"2024-149AA","EPOCH":"2026-07-05T05:15:27.577152","CLASSIFICATION_TYPE":"U","MEAN_MOTION":15.40346858,"ECCENTRICITY":0.0003642,"INCLINATION":97.3765,"RA_OF_ASC_NODE":269.7365,"ARG_OF_PERICENTER":172.677,"MEAN_ANOMALY":187.453,"EPHEMERIS_TYPE":0,"NORAD_CAT_ID":60492,"ELEMENT_SET_NO":999,"REV_AT_EPOCH":10503,"BSTAR":0.00065328,"MEAN_MOTION_DOT":0.00026341,"MEAN_MOTION_DDOT":0},{"OBJECT_NAME":"FLOCK 4BE-22","OBJECT_ID":"2024-149AC","EPOCH":"2026-07-05T04:25:27.344064","CLASSIFICATION_TYPE":"U","MEAN_MOTION":15.41749892,"ECCENTRICITY":0.0003978,"INCLINATION":97.3727,"RA_OF_ASC_NODE":269.922,"ARG_OF_PERICENTER":183.784,"MEAN_ANOMALY":176.3377,"EPHEMERIS_TYPE":0,"NORAD_CAT_ID":60494,"ELEMENT_SET_NO":999,"REV_AT_EPOCH":10507,"BSTAR":0.00062188,"MEAN_MOTION_DOT":0.00026263,"MEAN_MOTION_DDOT":0},{"OBJECT_NAME":"FLOCK 4BE-34","OBJECT_ID":"2024-149AD","EPOCH":"2026-07-05T04:50:26.639808","CLASSIFICATION_TYPE":"U","MEAN_MOTION":15.41723763,"ECCENTRICITY":0.0003874,"INCLINATION":97.3775,"RA_OF_ASC_NODE":270.7735,"ARG_OF_PERICENTER":190.6713,"MEAN_ANOMALY":169.4452,"EPHEMERIS_TYPE":0,"NORAD_CAT_ID":60495,"ELEMENT_SET_NO":999,"REV_AT_EPOCH":10510,"BSTAR":0.00063917,"MEAN_MOTION_DOT":0.00026975,"MEAN_MOTION_DDOT":0},{"OBJECT_NAME":"FLOCK 4BE-32","OBJECT_ID":"2024-149AF","EPOCH":"2026-07-05T05:21:07.122240","CLASSIFICATION_TYPE":"U","MEAN_MOTION":15.42823453,"ECCENTRICITY":0.0004027,"INCLINATION":97.3713,"RA_OF_ASC_NODE":270.3521,"ARG_OF_PERICENTER":187.358,"MEAN_ANOMALY":172.7609,"EPHEMERIS_TYPE":0,"NORAD_CAT_ID":60497,"ELEMENT_SET_NO":999,"REV_AT_EPOCH":10511,"BSTAR":0.00069238,"MEAN_MOTION_DOT":0.00030333,"MEAN_MOTION_DDOT":0},{"OBJECT_NAME":"FLOCK 4BE-11","OBJECT_ID":"2024-149AK","EPOCH":"2026-07-05T04:59:42.145152","CLASSIFICATION_TYPE":"U","MEAN_MOTION":15.43616388,"ECCENTRICITY":0.0004138,"INCLINATION":97.3692,"RA_OF_ASC_NODE":270.5846,"ARG_OF_PERICENTER":187.4957,"MEAN_ANOMALY":172.6229,"EPHEMERIS_TYPE":0,"NORAD_CAT_ID":60501,"ELEMENT_SET_NO":999,"REV_AT_EPOCH":10513,"BSTAR":0.00064808,"MEAN_MOTION_DOT":0.00029149,"MEAN_MOTION_DDOT":0},{"OBJECT_NAME":"FLOCK 4BE-24","OBJECT_ID":"2024-149AP","EPOCH":"2026-07-05T04:38:08.390688","CLASSIFICATION_TYPE":"U","MEAN_MOTION":15.43802133,"ECCENTRICITY":0.0004215,"INCLINATION":97.3708,"RA_OF_ASC_NODE":270.8328,"ARG_OF_PERICENTER":201.2673,"MEAN_ANOMALY":158.84,"EPHEMERIS_TYPE":0,"NORAD_CAT_ID":60505,"ELEMENT_SET_NO":999,"REV_AT_EPOCH":10514,"BSTAR":0.00076554,"MEAN_MOTION_DOT":0.00034689,"MEAN_MOTION_DDOT":0},{"OBJECT_NAME":"FLOCK 4BE-29","OBJECT_ID":"2024-149AT","EPOCH":"2026-07-05T04:36:22.184352","CLASSIFICATION_TYPE":"U","MEAN_MOTION":15.4481018,"ECCENTRICITY":0.00027,"INCLINATION":97.3805,"RA_OF_ASC_NODE":272.343,"ARG_OF_PERICENTER":201.8017,"MEAN_ANOMALY":158.3118,"EPHEMERIS_TYPE":0,"NORAD_CAT_ID":60509,"ELEMENT_SET_NO":999,"REV_AT_EPOCH":10519,"BSTAR":0.00075865,"MEAN_MOTION_DOT":0.00035566,"MEAN_MOTION_DDOT":0},{"OBJECT_NAME":"FLOCK 4BE-2","OBJECT_ID":"2024-149AV","EPOCH":"2026-07-05T05:18:55.846944","CLASSIFICATION_TYPE":"U","MEAN_MOTION":15.54918559,"ECCENTRICITY":0.000482,"INCLINATION":97.3825,"RA_OF_ASC_NODE":274.0565,"ARG_OF_PERICENTER":200.9949,"MEAN_ANOMALY":159.1108,"EPHEMERIS_TYPE":0,"NORAD_CAT_ID":60511,"ELEMENT_SET_NO":999,"REV_AT_EPOCH":10530,"BSTAR":0.0014546,"MEAN_MOTION_DOT":0.00098214,"MEAN_MOTION_DDOT":0},{"OBJECT_NAME":"FLOCK 4BE-13","OBJECT_ID":"2024-149AW","EPOCH":"2026-07-05T04:40:32.500704","CLASSIFICATION_TYPE":"U","MEAN_MOTION":15.42406741,"ECCENTRICITY":0.0004291,"INCLINATION":97.3717,"RA_OF_ASC_NODE":270.7988,"ARG_OF_PERICENTER":186.4208,"MEAN_ANOMALY":173.6985,"EPHEMERIS_TYPE":0,"NORAD_CAT_ID":60512,"ELEMENT_SET_NO":999,"REV_AT_EPOCH":10514,"BSTAR":0.00057768,"MEAN_MOTION_DOT":0.00024927,"MEAN_MOTION_DDOT":0},{"OBJECT_NAME":"FLOCK 4BE-9","OBJECT_ID":"2024-149AY","EPOCH":"2026-07-05T04:57:13.786848","CLASSIFICATION_TYPE":"U","MEAN_MOTION":15.41373692,"ECCENTRICITY":0.0002746,"INCLINATION":97.3786,"RA_OF_ASC_NODE":270.6588,"ARG_OF_PERICENTER":201.4152,"MEAN_ANOMALY":158.698,"EPHEMERIS_TYPE":0,"NORAD_CAT_ID":60514,"ELEMENT_SET_NO":999,"REV_AT_EPOCH":10509,"BSTAR":0.00063601,"MEAN_MOTION_DOT":0.00026526,"MEAN_MOTION_DDOT":0},{"OBJECT_NAME":"FLOCK 4BE-6","OBJECT_ID":"2024-149BA","EPOCH":"2026-07-05T04:25:57.472608","CLASSIFICATION_TYPE":"U","MEAN_MOTION":15.40109178,"ECCENTRICITY":0.0003388,"INCLINATION":97.3782,"RA_OF_ASC_NODE":269.9607,"ARG_OF_PERICENTER":205.5099,"MEAN_ANOMALY":154.598,"EPHEMERIS_TYPE":0,"NORAD_CAT_ID":60516,"ELEMENT_SET_NO":999,"REV_AT_EPOCH":10504,"BSTAR":0.0006343,"MEAN_MOTION_DOT":0.0002537,"MEAN_MOTION_DDOT":0},{"OBJECT_NAME":"FLOCK 4BE-14","OBJECT_ID":"2024-149BB","EPOCH":"2026-07-05T05:11:35.290752","CLASSIFICATION_TYPE":"U","MEAN_MOTION":15.4161117,"ECCENTRICITY":0.0004313,"INCLINATION":97.3688,"RA_OF_ASC_NODE":270.1461,"ARG_OF_PERICENTER":210.4409,"MEAN_ANOMALY":149.6588,"EPHEMERIS_TYPE":0,"NORAD_CAT_ID":60517,"ELEMENT_SET_NO":999,"REV_AT_EPOCH":10510,"BSTAR":0.00067335,"MEAN_MOTION_DOT":0.00028322,"MEAN_MOTION_DDOT":0},{"OBJECT_NAME":"FLOCK 4BE-5","OBJECT_ID":"2024-149CV","EPOCH":"2026-07-05T05:09:02.413728","CLASSIFICATION_TYPE":"U","MEAN_MOTION":15.40823081,"ECCENTRICITY":0.0003067,"INCLINATION":97.3837,"RA_OF_ASC_NODE":270.394,"ARG_OF_PERICENTER":203.6949,"MEAN_ANOMALY":156.4157,"EPHEMERIS_TYPE":0,"NORAD_CAT_ID":60559,"ELEMENT_SET_NO":999,"REV_AT_EPOCH":10505,"BSTAR":0.00059909,"MEAN_MOTION_DOT":0.00024524,"MEAN_MOTION_DDOT":0}]}
