FLOCK 4BE-17            
1 60492U 24149AA  26186.21906918  .00026341  00000+0  65328-3 0  9992
2 60492  97.3765 269.7365 0003641 172.6770 187.4530 15.40346858105033
FLOCK 4BE-22            
1 60494U 24149AC  26186.18434426  .00026263  00000+0  62188-3 0  9994
2 60494  97.3727 269.9220 0003978 183.7840 176.3377 15.41749892105075
FLOCK 4BE-34            
1 60495U 24149AD  26186.20169723  .00026975  00000+0  63917-3 0  9994
2 60495  97.3775 270.7735 0003873 190.6713 169.4452 15.41723763105100
FLOCK 4BE-32            
1 60497U 24149AF  26186.22299910  .00030333  00000+0  69238-3 0  9995
2 60497  97.3713 270.3521 0004027 187.3580 172.7609 15.42823453105110
FLOCK 4BE-11            
1 60501U 24149AK  26186.20812668  .00029149  00000+0  64808-3 0  9991
2 60501  97.3692 270.5846 0004138 187.4957 172.6229 15.43616389105134
FLOCK 4BE-24            
1 60505U 24149AP  26186.19315268  .00034689  00000+0  76554-3 0  9993
2 60505  97.3708 270.8328 0004214 201.2673 158.8400 15.43802133105141
FLOCK 4BE-29            
1 60509U 24149AT  26186.19192343  .00035566  00000+0  75865-3 0  9993
2 60509  97.3805 272.3430 0002699 201.8017 158.3118 15.44810180105195
FLOCK 4BE-2             
1 60511U 24149AV  26186.22147972  .00098214  00000+0  14546-2 0  9995
2 60511  97.3825 274.0565 0004819 200.9949 159.1108 15.54918559105309
FLOCK 4BE-13            
1 60512U 24149AW  26186.19482062  .00024927  00000+0  57768-3 0  9998
2 60512  97.3717 270.7988 0004290 186.4208 173.6985 15.42406741105149
FLOCK 4BE-9             
1 60514U 24149AY  26186.20640958  .00026526  00000+0  63601-3 0  9992
2 60514  97.3786 270.6588 0002745 201.4152 158.6980 15.41373692105090
FLOCK 4BE-6             
1 60516U 24149BA  26186.18469298  .00025370  00000+0  63430-3 0  9993
2 60516  97.3782 269.9607 0003387 205.5099 154.5980 15.40109178105044
FLOCK 4BE-14            
1 60517U 24149BB  26186.21638069  .00028322  00000+0  67335-3 0  9990
2 60517  97.3688 270.1461 0004313 210.4409 149.6588 15.41611170105109
FLOCK 4BE-5             
1 60559U 24149CV  26186.21461128  .00024524  00000+0  59909-3 0  9994
2 60559  97.3837 270.3940 0003067 203.6949 156.4157 15.40823081105050
